OBJECT_NAME,OBJECT_ID,EPOCH,MEAN_MOTION,ECCENTRICITY,INCLINATION,RA_OF_ASC_NODE,ARG_OF_PERICENTER,MEAN_ANOMALY,EPHEMERIS_TYPE,CLASSIFICATION_TYPE,NORAD_CAT_ID,ELEMENT_SET_NO,REV_AT_EPOCH,BSTAR,MEAN_MOTION_DOT,MEAN_MOTION_DDOT
FLOCK 4BE-23,2024-149Y,2026-07-14T04:07:34.663872,15.38347837,.0004789,97.3782,277.7182,160.6013,199.5415,0,U,60490,999,10634,.22359E-3,.8372E-4,0
FLOCK 4BE-17,2024-149AA,2026-07-14T04:23:57.411168,15.40551532,.0004082,97.3777,278.7780,146.0709,214.0799,0,U,60492,999,10641,.25674E-3,.1035E-3,0
NUSAT-50 (NANCY ROMAN),2024-149AB,2026-07-14T04:15:57.917088,15.30308087,.0004858,97.3787,276.2522,103.8394,256.3387,0,U,60493,999,10625,.18903E-3,.5466E-4,0
FLOCK 4BE-22,2024-149AC,2026-07-14T04:55:36.465024,15.41966753,.0004629,97.3737,279.0360,157.3175,202.8278,0,U,60494,999,10646,.23031E-3,.9723E-4,0
FLOCK 4BE-34,2024-149AD,2026-07-14T03:47:25.013760,15.41930282,.0004842,97.3785,279.8275,164.3719,195.7679,0,U,60495,999,10648,.23812E-3,.10044E-3,0
TYCHE,2024-149AE,2026-07-14T03:40:55.322976,15.25824997,.0003017,97.3752,272.6067,167.9192,192.2119,0,U,60496,999,10601,.97515E-4,.2422E-4,0
FLOCK 4BE-32,2024-149AF,2026-07-14T04:08:45.587040,15.43063214,.0004939,97.3723,279.4070,163.2828,196.8584,0,U,60497,999,10649,.25403E-3,.11138E-3,0
NUSAT-48 (HENRIETTA LEAVITT),2024-149AG,2026-07-14T04:00:06.321312,15.30264355,.0004685,97.3921,276.5311,161.5514,198.5897,0,U,60498,999,10626,.18484E-3,.5336E-4,0
NUSAT-49 (KLARA DAN VON NEUMANN),2024-149AJ,2026-07-14T03:26:04.532064,15.30371601,.0002421,97.3780,276.2501,166.8402,193.2902,0,U,60500,999,10625,.17492E-3,.5061E-4,0
FLOCK 4BE-11,2024-149AK,2026-07-14T03:40:44.688864,15.43853605,.0004772,97.3703,279.6434,161.4068,198.7356,0,U,60501,999,10651,.24832E-3,.1118E-3,0
YAM-7,2024-149AN,2026-07-14T03:55:33.908160,15.32173017,.0003544,97.3781,275.3085,171.3515,188.7789,0,U,60504,999,10618,.14089E-3,.4298E-4,0
FLOCK 4BE-24,2024-149AP,2026-07-14T04:50:47.748192,15.44075487,.0005121,97.3716,279.9607,174.0171,186.1140,0,U,60505,999,10653,.28162E-3,.1279E-3,0
LUR-1,2024-149AQ,2026-07-14T04:25:20.498592,15.30438894,.0003867,97.3738,273.8214,186.7165,173.4025,0,U,60506,999,10610,.14124E-3,.4081E-4,0
TANAGER-1,2024-149AR,2026-07-13T04:54:41.270112,15.43938830,.0001097,97.2326,288.3495,157.8296,202.3000,0,U,60507,999,10705,.62927E-5,.202E-5,0
EAGLEEYE,2024-149AS,2026-07-14T04:41:32.729280,15.76584137,.0005086,97.3726,290.1347,187.5498,172.5692,0,U,60508,999,10718,.52768E-3,.84386E-3,0
FLOCK 4BE-29,2024-149AT,2026-07-14T04:39:01.188864,15.45422356,.0003394,97.3816,281.4914,178.2968,181.8293,0,U,60509,999,10658,.59684E-3,.28526E-3,0
TRANSPORTER-11 OBJECT AU,2024-149AU,2026-07-14T03:25:58.737216,15.40955095,.0004097,97.3734,279.0914,171.1683,188.9636,0,U,60510,999,10646,.21041E-3,.8579E-4,0
FLOCK 4BE-2,2024-149AV,2026-07-14T03:56:18.652128,15.55809070,.0005377,97.3834,283.2891,177.0226,183.1061,0,U,60511,999,10669,.663E-3,.459E-3,0
FLOCK 4BE-13,2024-149AW,2026-07-13T18:11:24.584352,15.42590436,.0004975,97.3725,279.4573,160.6063,199.5375,0,U,60512,999,10646,.19889E-3,.8562E-4,0
FLOCK 4BE-27,2024-149AX,2026-07-14T04:31:02.841312,15.34905449,.0003882,97.3827,277.0593,184.5793,175.5415,0,U,60513,999,10628,.17333E-3,.5787E-4,0
FLOCK 4BE-9,2024-149AY,2026-07-14T03:57:08.737344,15.41575592,.0003657,97.3791,279.7119,174.2676,185.8614,0,U,60514,999,10647,.23195E-3,.9664E-4,0
FLOCK 4BE-6,2024-149BA,2026-07-14T03:36:30.525984,15.40297101,.0004175,97.3792,279.0032,176.6437,183.4838,0,U,60516,999,10642,.21959E-3,.8764E-4,0
FLOCK 4BE-14,2024-149BB,2026-07-14T04:09:25.756992,15.41833041,.0005368,97.3696,279.1889,180.0128,180.1120,0,U,60517,999,10648,.24757E-3,.10414E-3,0
FLOCK 4BE-1,2024-149BC,2026-07-14T03:51:22.434048,15.43486757,.0005059,97.3782,280.5514,179.5414,180.5839,0,U,60518,999,10653,.25425E-3,.11308E-3,0
FLOCK 4BE-28,2024-149BD,2026-07-14T04:44:34.812096,15.46236661,.0004839,97.3755,281.4009,178.6916,181.4347,0,U,60519,999,10661,.6105E-3,.30017E-3,0
IPERDRONE.0,2024-149BE,2026-07-13T18:41:10.429152,15.70872434,.0004245,97.3777,289.3835,170.0036,190.1311,0,U,60520,999,10708,.49324E-3,.61607E-3,0
TRANSPORTER-11 OBJECT BF,2024-149BF,2026-07-13T22:28:48.167040,16.08307997,.0010372,97.3799,293.3355,245.4248,114.5954,0,U,60521,999,10734,.1024E-2,.853486E-2,.40064E-3
CONNECTA IOT-2,2024-149BG,2026-07-14T03:56:41.664768,15.24189508,.0005475,97.3837,272.9034,216.8818,143.2043,0,U,60522,999,10600,.10846E-3,.2571E-4,0
